[{"OBJECT_NAME":"STARLINK-32943","OBJECT_ID":"2025-032U","EPOCH":"2026-03-09T04:16:08.774112","MEAN_MOTION":15.27596857,"ECCENTRICITY":0.00037679,"INCLINATION":43.0042,"RA_OF_ASC_NODE":338.7751,"ARG_OF_PERICENTER":242.451,"MEAN_ANOMALY":117.5959,"EPHEMERIS_TYPE":0,"CLASSIFICATION_TYPE":"U","NORAD_CAT_ID":63023,"ELEMENT_SET_NO":999,"REV_AT_EPOCH":6054,"BSTAR":0.0008796104,"MEAN_MOTION_DOT":0.00024037,"MEAN_MOTION_DDOT":0},{"OBJECT_NAME":"CZ-4C R\/B","OBJECT_ID":"2010-009D","EPOCH":"2026-03-09T22:19:23.688192","MEAN_MOTION":13.72984009,"ECCENTRICITY":0.06900973,"INCLINATION":63.3888,"RA_OF_ASC_NODE":313.7289,"ARG_OF_PERICENTER":2.6464,"MEAN_ANOMALY":357.7935,"EPHEMERIS_TYPE":0,"CLASSIFICATION_TYPE":"U","NORAD_CAT_ID":36416,"ELEMENT_SET_NO":999,"REV_AT_EPOCH":80095,"BSTAR":0.00032412476,"MEAN_MOTION_DOT":1.649e-5,"MEAN_MOTION_DDOT":0}]
